IRIDIUM 155             
1 43573U 18061E   21090.19799344  .00000086  00000-0  23569-4 0  9999
2 43573  86.3952 132.4527 0002770  94.8242 265.3270 14.34216289140466
IRIDIUM 154             
1 43574U 18061F   21090.38826764  .00000085  00000-0  23207-4 0  9996
2 43574  86.3955 132.4161 0002043  97.3357 262.8071 14.34219220140539
IRIDIUM 163             
1 43575U 18061G   21090.36923708  .00000081  00000-0  21734-4 0  9990
2 43575  86.3953 132.3973 0002073  79.7301 280.4128 14.34219669140507
IRIDIUM 156             
1 43576U 18061H   21090.34387699  .00000081  00000-0  21959-4 0  9991
2 43576  86.3953 132.4129 0002468  86.2321 273.9157 14.34218435140492
IRIDIUM 164             
1 43577U 18061J   21090.39462241  .00000084  00000-0  23073-4 0  9996
2 43577  86.3954 132.4031 0002034  92.9796 267.1633 14.34218694140542
IRIDIUM 159             
1 43578U 18061K   21090.36290210  .00000079  00000-0  21084-4 0  9993
2 43578  86.3952 132.3931 0002109  95.0354 265.1083 14.34218502140507
IRIDIUM 180             
1 43922U 19002A   21090.29262803  .00000078  00000-0  20737-4 0  9994
2 43922  86.3946  69.2324 0001165  84.5425 275.5903 14.34218854116105
IRIDIUM 176             
1 43923U 19002B   21090.31559014  .00000142  00000-0  18571-4 0  9996
2 43923  86.6081  69.2544 0002285  91.8600 268.2878 14.72253453119135
IRIDIUM 168             
1 43924U 19002C   21090.35606970  .00000078  00000-0  20832-4 0  9996
2 43924  86.3948  69.2293 0001950  90.9828 269.1592 14.34217822116099
IRIDIUM 173             
1 43925U 19002D   21090.34337790  .00000079  00000-0  21202-4 0  9990
2 43925  86.3945  69.2010 0001986  87.8460 272.2963 14.34218580116077
IRIDIUM 169             
1 43926U 19002E   21090.30217248  .00000041  00000-0  68965-5 0  9999
2 43926  86.4175 100.8392 0006942 117.4183 242.7722 14.38610119116509
IRIDIUM 172             
1 43927U 19002F   21090.33702383  .00000084  00000-0  23056-4 0  9990
2 43927  86.3945  69.2056 0001918  88.5877 271.5539 14.34218026116081
IRIDIUM 175             
1 43928U 19002G   21090.30940208  .00000138  00000-0  17999-4 0  9997
2 43928  86.6065  69.0921 0002400  72.9322 287.2158 14.72253897119122
IRIDIUM 171             
1 43929U 19002H   21090.31799540  .00000079  00000-0  21233-4 0  9990
2 43929  86.3955  69.3085 0001954  91.4074 268.7345 14.34218927116071
IRIDIUM 170             
1 43930U 19002J   21090.32174291  .00000135  00000-0  17446-4 0  9997
2 43930  86.6081  69.2583 0002224  85.2857 274.8614 14.72253571119143
IRIDIUM 167             
1 43931U 19002K   21090.31165177  .00000081  00000-0  21842-4 0  9995
2 43931  86.3946  69.2219 0001406  90.1458 269.9899 14.34216485116070
